start=new Date('2022-03-08T00:00:00.000Z').valueOf();
sats=[{"FILE":"3349821","RA_OF_ASC_NODE":"108.5578","OBJECT_TYPE":"PAYLOAD","MEAN_MOTION_DDOT":"0.0000000000000","MEAN_ANOMALY":"305.4162","PERIOD":"95.592","ARG_OF_PERICENTER":"54.6993","TLE_LINE2":"2 47583  53.0533 108.5578 0001778  54.6993 305.4162 15.06394879 60314","RCS_SIZE":"LARGE","EPHEMERIS_TYPE":"0","BSTAR":"-0.00013232000000","OBJECT_NAME":"STARLINK-1987","INCLINATION":"53.0533","MEAN_ELEMENT_THEORY":"SGP4","CENTER_NAME":"EARTH","CLASSIFICATION_TYPE":"U","TLE_LINE1":"1 47583U 21009AM  22066.85008446 -.00002252  00000-0 -13232-3 0  9997","COUNTRY_CODE":"US","GP_ID":"198188167","EPOCH":"2022-03-07T20:24:07.297344","ECCENTRICITY":"0.00017780","TIME_SYSTEM":"UTC","APOAPSIS":"548.461","REF_FRAME":"TEME","SEMIMAJOR_AXIS":"6925.364","LAUNCH_DATE":"2021-02-04","SITE":"AFETR","MEAN_MOTION":"15.06394879","ELEMENT_SET_NO":"999","MEAN_MOTION_DOT":"-0.00002252","OBJECT_ID":"2021-009AM","DECAY_DATE":null,"NORAD_CAT_ID":"47583","REV_AT_EPOCH":"6031","PERIAPSIS":"545.998"},{"OBJECT_ID":"2021-009AP","MEAN_MOTION_DOT":"-0.00001430","MEAN_MOTION":"15.06390399","ELEMENT_SET_NO":"999","SITE":"AFETR","LAUNCH_DATE":"2021-02-04","REF_FRAME":"TEME","SEMIMAJOR_AXIS":"6925.378","PERIAPSIS":"545.700","REV_AT_EPOCH":"6030","NORAD_CAT_ID":"47585","DECAY_DATE":null,"ECCENTRICITY":"0.00022280","EPOCH":"2022-03-07T19:25:44.757120","TLE_LINE1":"1 47585U 21009AP  22066.80954580 -.00001430  00000-0 -77094-4 0  9997","COUNTRY_CODE":"US","GP_ID":"198188419","APOAPSIS":"548.786","TIME_SYSTEM":"UTC","BSTAR":"-0.00007709400000","EPHEMERIS_TYPE":"0","RCS_SIZE":"LARGE","TLE_LINE2":"2 47585  53.0550 108.7438 0002228  42.6239 317.4922 15.06390399 60302","CLASSIFICATION_TYPE":"U","CENTER_NAME":"EARTH","MEAN_ELEMENT_THEORY":"SGP4","INCLINATION":"53.0550","OBJECT_NAME":"STARLINK-1989","MEAN_MOTION_DDOT":"0.0000000000000","RA_OF_ASC_NODE":"108.7438","OBJECT_TYPE":"PAYLOAD","FILE":"3349821","ARG_OF_PERICENTER":"42.6239","PERIOD":"95.593","MEAN_ANOMALY":"317.4922"},{"TLE_LINE1":"1 47586U 21009AQ  22066.85929740 -.00005898  00000-0 -37760-3 0  9990","GP_ID":"198189169","COUNTRY_CODE":"US","EPOCH":"2022-03-07T20:37:23.295360","ECCENTRICITY":"0.00015250","TIME_SYSTEM":"UTC","APOAPSIS":"548.332","REF_FRAME":"TEME","SEMIMAJOR_AXIS":"6925.411","LAUNCH_DATE":"2021-02-04","SITE":"AFETR","ELEMENT_SET_NO":"999","MEAN_MOTION":"15.06379634","OBJECT_ID":"2021-009AQ","MEAN_MOTION_DOT":"-0.00005898","DECAY_DATE":null,"NORAD_CAT_ID":"47586","REV_AT_EPOCH":"6003","PERIAPSIS":"546.220","FILE":"3349821","RA_OF_ASC_NODE":"128.5179","OBJECT_TYPE":"PAYLOAD","MEAN_MOTION_DDOT":"0.0000000000000","MEAN_ANOMALY":"311.2728","PERIOD":"95.593","ARG_OF_PERICENTER":"48.8393","TLE_LINE2":"2 47586  53.0540 128.5179 0001525  48.8393 311.2728 15.06379634 60037","RCS_SIZE":"LARGE","EPHEMERIS_TYPE":"0","BSTAR":"-0.00037760000000","OBJECT_NAME":"STARLINK-1990","INCLINATION":"53.0540","MEAN_ELEMENT_THEORY":"SGP4","CENTER_NAME":"EARTH","CLASSIFICATION_TYPE":"U"},{"APOAPSIS":"548.328","TIME_SYSTEM":"UTC","ECCENTRICITY":"0.00015440","EPOCH":"2022-03-07T18:55:13.236096","COUNTRY_CODE":"US","TLE_LINE1":"1 47587U 21009AR  22066.78834764 -.00003621  00000-0 -22439-3 0  9993","GP_ID":"198187917","PERIAPSIS":"546.189","REV_AT_EPOCH":"6044","NORAD_CAT_ID":"47587","DECAY_DATE":null,"OBJECT_ID":"2021-009AR","MEAN_MOTION_DOT":"-0.00003621","ELEMENT_SET_NO":"999","MEAN_MOTION":"15.06385363","SITE":"AFETR","LAUNCH_DATE":"2021-02-04","SEMIMAJOR_AXIS":"6925.393","REF_FRAME":"TEME","ARG_OF_PERICENTER":"61.0152","PERIOD":"95.593","MEAN_ANOMALY":"299.0992","MEAN_MOTION_DDOT":"0.0000000000000","OBJECT_TYPE":"PAYLOAD","RA_OF_ASC_NODE":"98.8507","FILE":"3349821","CLASSIFICATION_TYPE":"U","CENTER_NAME":"EARTH","MEAN_ELEMENT_THEORY":"SGP4","INCLINATION":"53.0551","OBJECT_NAME":"STARLINK-1991","BSTAR":"-0.00022439000000","EPHEMERIS_TYPE":"0","RCS_SIZE":"LARGE","TLE_LINE2":"2 47587  53.0551  98.8507 0001544  61.0152 299.0992 15.06385363 60442"},{"MEAN_MOTION_DOT":"-0.00004118","OBJECT_ID":"2021-009AS","ELEMENT_SET_NO":"999","MEAN_MOTION":"15.06389141","SITE":"AFETR","LAUNCH_DATE":"2021-02-04","REF_FRAME":"TEME","SEMIMAJOR_AXIS":"6925.382","REV_AT_EPOCH":"6031","PERIAPSIS":"546.060","NORAD_CAT_ID":"47588","DECAY_DATE":null,"ECCENTRICITY":"0.00017140","EPOCH":"2022-03-07T20:18:48.815712","TLE_LINE1":"1 47588U 21009AS  22066.84639833 -.00004118  00000-0 -25775-3 0  9999","GP_ID":"198187668","COUNTRY_CODE":"US","APOAPSIS":"548.434","TIME_SYSTEM":"UTC","BSTAR":"-0.00025775000000","EPHEMERIS_TYPE":"0","RCS_SIZE":"LARGE","TLE_LINE2":"2 47588  53.0521 108.5727 0001714  58.3513 301.7643 15.06389141 60310","CLASSIFICATION_TYPE":"U","CENTER_NAME":"EARTH","MEAN_ELEMENT_THEORY":"SGP4","INCLINATION":"53.0521","OBJECT_NAME":"STARLINK-1993","MEAN_MOTION_DDOT":"0.0000000000000","OBJECT_TYPE":"PAYLOAD","RA_OF_ASC_NODE":"108.5727","FILE":"3349821","ARG_OF_PERICENTER":"58.3513","PERIOD":"95.593","MEAN_ANOMALY":"301.7643"},{"OBJECT_ID":"2021-009AT","MEAN_MOTION_DOT":"0.00000180","REF_FRAME":"TEME","SEMIMAJOR_AXIS":"6925.361","LAUNCH_DATE":"2021-02-04","SITE":"AFETR","MEAN_MOTION":"15.06396040","ELEMENT_SET_NO":"999","PERIAPSIS":"546.162","REV_AT_EPOCH":"6026","DECAY_DATE":null,"NORAD_CAT_ID":"47589","EPOCH":"2022-03-07T12:47:38.600160","ECCENTRICITY":"0.00015360","TLE_LINE1":"1 47589U 21009AT  22066.53308565  .00000180  00000-0  30956-4 0  9992","GP_ID":"198188919","COUNTRY_CODE":"US","TIME_SYSTEM":"UTC","APOAPSIS":"548.289","RCS_SIZE":"LARGE","EPHEMERIS_TYPE":"0","BSTAR":"0.00003095600000","TLE_LINE2":"2 47589  53.0555 109.9931 0001536  61.8488 298.2656 15.06396040 60266","CLASSIFICATION_TYPE":"U","INCLINATION":"53.0555","OBJECT_NAME":"STARLINK-1994","CENTER_NAME":"EARTH","MEAN_ELEMENT_THEORY":"SGP4","OBJECT_TYPE":"PAYLOAD","RA_OF_ASC_NODE":"109.9931","MEAN_MOTION_DDOT":"0.0000000000000","FILE":"3349821","MEAN_ANOMALY":"298.2656","PERIOD":"95.592","ARG_OF_PERICENTER":"61.8488"},{"OBJECT_ID":"2021-009AU","MEAN_MOTION_DOT":"-0.00003324","SEMIMAJOR_AXIS":"6925.384","REF_FRAME":"TEME","LAUNCH_DATE":"2021-02-04","SITE":"AFETR","ELEMENT_SET_NO":"999","MEAN_MOTION":"15.06388411","PERIAPSIS":"545.927","REV_AT_EPOCH":"6003","DECAY_DATE":null,"NORAD_CAT_ID":"47590","EPOCH":"2022-03-07T20:32:04.795584","ECCENTRICITY":"0.00019090","GP_ID":"198188670","TLE_LINE1":"1 47590U 21009AU  22066.85561106 -.00003324  00000-0 -20443-3 0  9995","COUNTRY_CODE":"US","TIME_SYSTEM":"UTC","APOAPSIS":"548.571","RCS_SIZE":"LARGE","EPHEMERIS_TYPE":"0","BSTAR":"-0.00020443000000","TLE_LINE2":"2 47590  53.0537 128.5384 0001909  47.5356 312.5794 15.06388411 60037","CLASSIFICATION_TYPE":"U","INCLINATION":"53.0537","OBJECT_NAME":"STARLINK-1995","MEAN_ELEMENT_THEORY":"SGP4","CENTER_NAME":"EARTH","OBJECT_TYPE":"PAYLOAD","RA_OF_ASC_NODE":"128.5384","MEAN_MOTION_DDOT":"0.0000000000000","FILE":"3349821","MEAN_ANOMALY":"312.5794","PERIOD":"95.593","ARG_OF_PERICENTER":"47.5356"},{"TLE_LINE2":"2 47591  53.0537 110.6038 0001782  47.9799 312.1341 15.06398828 60240","RCS_SIZE":"LARGE","EPHEMERIS_TYPE":"0","BSTAR":"-0.00008634000000","INCLINATION":"53.0537","OBJECT_NAME":"STARLINK-1996","MEAN_ELEMENT_THEORY":"SGP4","CENTER_NAME":"EARTH","CLASSIFICATION_TYPE":"U","FILE":"3349338","RA_OF_ASC_NODE":"110.6038","OBJECT_TYPE":"PAYLOAD","MEAN_MOTION_DDOT":"0.0000000000000","MEAN_ANOMALY":"312.1341","PERIOD":"95.592","ARG_OF_PERICENTER":"47.9799","REF_FRAME":"TEME","SEMIMAJOR_AXIS":"6925.352","LAUNCH_DATE":"2021-02-04","SITE":"AFETR","ELEMENT_SET_NO":"999","MEAN_MOTION":"15.06398828","MEAN_MOTION_DOT":"-0.00001567","OBJECT_ID":"2021-009AV","DECAY_DATE":null,"NORAD_CAT_ID":"47591","PERIAPSIS":"545.983","REV_AT_EPOCH":"6024","GP_ID":"198151159","TLE_LINE1":"1 47591U 21009AV  22066.39670310 -.00001567  00000-0 -86340-4 0  9999","COUNTRY_CODE":"US","EPOCH":"2022-03-07T09:31:15.147840","ECCENTRICITY":"0.00017820","TIME_SYSTEM":"UTC","APOAPSIS":"548.451"},{"CENTER_NAME":"EARTH","MEAN_ELEMENT_THEORY":"SGP4","OBJECT_NAME":"STARLINK-1997","INCLINATION":"53.0531","CLASSIFICATION_TYPE":"U","TLE_LINE2":"2 47592  53.0531 128.3808 0001740  64.0499 296.0669 15.06386302 60031","EPHEMERIS_TYPE":"0","RCS_SIZE":"LARGE","BSTAR":"-0.00018517000000","PERIOD":"95.593","MEAN_ANOMALY":"296.0669","ARG_OF_PERICENTER":"64.0499","FILE":"3349821","RA_OF_ASC_NODE":"128.3808","OBJECT_TYPE":"PAYLOAD","MEAN_MOTION_DDOT":"0.0000000000000","DECAY_DATE":null,"NORAD_CAT_ID":"47592","REV_AT_EPOCH":"6003","PERIAPSIS":"546.051","LAUNCH_DATE":"2021-02-04","SEMIMAJOR_AXIS":"6925.391","REF_FRAME":"TEME","MEAN_MOTION":"15.06386302","ELEMENT_SET_NO":"999","SITE":"AFETR","OBJECT_ID":"2021-009AW","MEAN_MOTION_DOT":"-0.00003038","TIME_SYSTEM":"UTC","APOAPSIS":"548.461","GP_ID":"198188168","TLE_LINE1":"1 47592U 21009AW  22066.89246714 -.00003038  00000-0 -18517-3 0  9997","COUNTRY_CODE":"US","ECCENTRICITY":"0.00017400","EPOCH":"2022-03-07T21:25:09.160896"},{"CENTER_NAME":"EARTH","MEAN_ELEMENT_THEORY":"SGP4","OBJECT_NAME":"STARLINK-1998","INCLINATION":"53.0522","CLASSIFICATION_TYPE":"U","TLE_LINE2":"2 47593  53.0522 128.5006 0001912  47.7989 312.3162 15.06384205 60037","BSTAR":"-0.00027991000000","EPHEMERIS_TYPE":"0","RCS_SIZE":"LARGE","ARG_OF_PERICENTER":"47.7989","PERIOD":"95.593","MEAN_ANOMALY":"312.3162","FILE":"3349821","MEAN_MOTION_DDOT":"0.0000000000000","OBJECT_TYPE":"PAYLOAD","RA_OF_ASC_NODE":"128.5006","NORAD_CAT_ID":"47593","DECAY_DATE":null,"PERIAPSIS":"545.938","REV_AT_EPOCH":"6003","ELEMENT_SET_NO":"999","MEAN_MOTION":"15.06384205","SITE":"AFETR","LAUNCH_DATE":"2021-02-04","REF_FRAME":"TEME","SEMIMAJOR_AXIS":"6925.397","MEAN_MOTION_DOT":"-0.00004447","OBJECT_ID":"2021-009AX","APOAPSIS":"548.586","TIME_SYSTEM":"UTC","TLE_LINE1":"1 47593U 21009AX  22066.86298266 -.00004447  00000-0 -27991-3 0  9995","GP_ID":"198188420","COUNTRY_CODE":"US","ECCENTRICITY":"0.00019120","EPOCH":"2022-03-07T20:42:41.701824"}];
